DIWATA-2B (PO-101)
1 43678U 18084H   26126.15357257  .00002701  00000-0  22071-3 0  9996
2 43678  98.1080 320.5657 0012459 316.1991  43.8242 15.00245415409918
ESHAIL-2
1 43700U 18090A   26126.19612579  .00000152  00000-0  00000+0 0  9996
2 43700   0.0127 273.4008 0001646 159.8741 247.2023  1.00271840 27251
K2SAT
1 43761U 18099D   26126.11162308  .00002401  00000-0  16684-3 0  9992
2 43761  97.4215 168.4791 0013068 124.7088 235.5373 15.06381786405771
AISTECHSAT-2
1 43768U 18099L   26126.08817772  .00006101  00000-0  32983-3 0  9998
2 43768  97.4322 175.0498 0006393  89.0162 271.1803 15.15024191405907
SNUSAT-2
1 43782U 18099AA  26126.11106903  .00008774  00000-0  39556-3 0  9996
2 43782  97.4086 180.1552 0011997  85.9906 274.2701 15.21200438406634
ITASAT-1
1 43786U 18099AE  26126.11887154  .00006637  00000-0  32399-3 0  9998
2 43786  97.4057 178.4805 0014043 135.2671 224.9698 15.18519735406524
EAGLET-1
1 43790U 18099AJ  26126.11626644  .00003801  00000-0  22085-3 0  9999
2 43790  97.4260 176.9021 0012639 127.0611 233.1778 15.12620011405973
ESEO
1 43792U 18099AL  26126.07099529  .00001501  00000-0  11232-3 0  9999
2 43792  97.3996 165.2588 0013351 114.4602 245.8018 15.04110632405477
MINXSS-2
1 43758U 18099A   26126.07011387  .00033101  00000-0  71971-3 0  9994
2 43758  97.4548 201.2117 0008152  67.0080 293.2028 15.44228296407625
FOX-1CLIFF (AO-95)
1 43770U 18099N   26126.11729543  .00012102  00000-0  47515-3 0  9998
2 43770  97.4406 186.5431 0010247 131.6538 228.5579 15.25813488406803
CORVUS-BC4
1 43767U 18099K   26126.04065028  .00004155  00000-0  24436-3 0  9993
2 43767  97.4100 170.2582 0009603 138.7021 221.4938 15.12157276406034
CZ-4B R/B
1 43656U 18081B   26126.18880855  .00000228  00000-0  84767-4 0  9990
2 43656  99.3692  40.7638 0205303  27.9906 333.2138 14.31848204393292
COSMOS 2504 [i]
1 40555U 15020D   26126.14919432  .00000182  00000-0  59935-4 0  9993
2 40555  82.5146 263.7853 0608549  28.6952 334.6288 13.61372624544478
MERIDIAN-4
1 37398U 11018A   26086.29615466  .00018792  00000-0  21546-2 0  9999
2 37398  62.0768  86.8592 7509617 264.8296  14.5762  2.02052290109121
MERIDIAN-6
1 38995U 12063A   26125.74502885  .00000475  00000-0  00000+0 0  9996
2 38995  64.1206   1.4182 7337569 228.5910  40.2814  2.00634610 98657
MERIDIAN-7
1 40296U 14069A   26125.81040939  .00000212  00000-0  00000+0 0  9995
2 40296  63.4445 219.5078 6663532 270.8421  19.4751  2.00586798 84381
METOP-C
1 43689U 18087A   26126.11697926  .00000100  00000-0  65693-4 0  9996
2 43689  98.6667 186.4836 0000373  53.3699 306.7512 14.21500555388852
FENGYUN-3B
1 37214U 10059A   26126.16100424 -.00000224  00000-0 -92323-4 0  9990
2 37214  98.9649 171.9897 0021219 307.9005 142.1762 14.14830872801487
FENGYUN-3C
1 39260U 13052A   26126.13422479  .00000090  00000-0  66885-4 0  9996
2 39260  98.4966 101.9469 0015344 140.7499 219.4791 14.15745181652615
EWS-G1 (GOES-13)
1 29155U 06018A   26125.96023266 -.00000021  00000-0  00000+0 0  9990
2 29155   4.4242  76.9200 0061400 276.6407 130.4392  0.98785961 42839
FENGYUN-2H
1 43491U 18050A   26126.06411262 -.00000122  00000-0  00000+0 0  9999
2 43491   2.9237  79.5485 0001269 144.0328 102.7873  1.00274566 29015
FENGYUN-2G
1 40367U 14090A   26125.90731623 -.00000294  00000-0  00000+0 0  9996
2 40367   5.5333  73.3148 0002618 136.0302  80.8423  1.00269561 41571
INMARSAT 4-F1
1 28628U 05009A   26126.08369935  .00000041  00000-0  00000+0 0  9994
2 28628   5.1123  42.6787 0003139   5.1762  24.3570  1.00272230 77250
INMARSAT 4-F2
1 28899U 05044A   26126.21032161 -.00000252  00000-0  00000+0 0  9991
2 28899   5.0412  43.7466 0003001   5.7341  33.7997  1.00273461 75109
INMARSAT 4-F3
1 33278U 08039A   26126.23362543 -.00000133  00000-0  00000+0 0  9995
2 33278   4.2586  31.4546 0003001  18.2023 160.5508  1.00272163 46123
INMARSAT 4A-F4 (ALPHASAT)
1 39215U 13038A   26126.19595244  .00000141  00000-0  00000+0 0  9996
2 39215   2.9934   1.6229 0002703  75.1939 242.6714  1.00271033 43599
ASTROCAST
1 43798U 18099AS  26126.18221017  .00031333  00000-0  62318-3 0  9993
2 43798  97.4385 203.4594 0004532  27.5584 332.5905 15.46882592407931
JY1SAT (JO-97)
1 43803U 18099AX  26126.12327008  .00017744  00000-0  56955-3 0  9991
2 43803  97.4153 188.8507 0006926  70.9167 289.2824 15.32346816407183
SUOMI-100
1 43804U 18099AY  26125.70237540  .00013279  00000-0  49562-3 0  9991
2 43804  97.4215 186.2797 0011516  75.4770 284.7745 15.27460273406939
GEO-KOMPSAT-2A
1 43823U 18100A   26125.93119921 -.00000336  00000-0  00000+0 0  9993
2 43823   0.0612  82.7527 0002316 350.3819 254.1715  1.00271529 27206
UWE-4
1 43880U 18111E   26125.78606171  .00031912  00000-0  70825-3 0  9998
2 43880  97.5864  52.3144 0010629 111.8642 248.3737 15.43602289404231
D-STAR ONE SPARROW
1 43881U 18111F   26126.09948080  .00099502  00000-0  10160-2 0  9996
2 43881  97.6127  63.3124 0007557 117.0464 243.1566 15.64707031404777
METEOR M2-2
1 44387U 19038A   26126.16704042  .00000120  00000-0  71610-4 0  9990
2 44387  98.9137 112.8371 0002081 111.8294 248.3106 14.24354084355311
MOMENTUS-X1
1 44408U 19038Y   26126.09910463  .00039928  00000-0  43479-3 0  9991
2 44408  97.6788 167.7431 0009591 159.4650 200.6995 15.63273374379977
MERIDIAN-8
1 44453U 19046A   26124.84944900 -.00000061  00000-0  00000-0 0  9991
2 44453  63.0887  56.3329 7063714 274.7463  14.8716  2.00610138 49475
TAURUS-1
1 44530U 19059C   26126.16211462  .00006305  00000-0  10201-2 0  9990
2 44530  98.6389 288.4063 0009698  87.2093 273.0221 14.71649746352469
GAOFEN 12-01
1 44819U 19082A   26126.17469002  .00000380  00000-0  56371-4 0  9999
2 44819  97.8115 133.6628 0001936 120.7936 239.3467 14.80424386347878
CAS-6 (TO-108)
1 44881U 19093C   26126.17520950  .00001314  00000-0  15459-3 0  9999
2 44881  97.7540 199.4303 0012414 220.7229 139.3060 14.86454106345175
ELEKTRO-L3
1 44903U 19095A   26126.13465955 -.00000088  00000-0  00000+0 0  9995
2 44903   0.1485  78.4203 0001345 324.9110 305.1000  1.00272236 23284
DOSAAF-85 (RS-44)
1 44909U 19096E   26126.02171148  .00000021  00000-0  44177-4 0  9992
2 44909  82.5250   7.7271 0216478 242.8653 115.0226 12.79748103296952
MERIDIAN-9
1 45254U 20015A   26124.59889270 -.00000097  00000-0  00000-0 0  9998
2 45254  65.5214 323.6001 6871529 278.6620  14.8589  2.00602082 45418
DEKART
1 46493U 20068H   26126.08037767  .00013028  00000-0  36868-3 0  9995
2 46493  97.8760 132.3681 0011007  79.0533 281.1947 15.36390454309302
NORBY
1 46494U 20068J   26126.06240907  .00023055  00000-0  46210-3 0  9999
2 46494  97.8657 138.3743 0008279  62.7942 297.4149 15.46700093309694
SALSAT (TUBSAT 22)
1 46495U 20068K   26125.94722748  .00008554  00000-0  30434-3 0  9992
2 46495  97.8866 126.4631 0011705  91.7071 268.5508 15.29183475308905
NETSAT-4
1 46504U 20068U   26125.97534943  .00017705  00000-0  41003-3 0  9996
2 46504  97.8625 130.8729 0007648 108.2323 251.9755 15.42488867309269
NETSAT-3
1 46505U 20068V   26125.94840914  .00018688  00000-0  45077-3 0  9998
2 46505  97.8672 129.1160 0007325 120.9667 239.2299 15.41251322309171
NETSAT-1
1 46506U 20068W   26125.47716092  .00014757  00000-0  45606-3 0  9997
2 46506  97.8756 123.4298 0006242 141.5184 218.6503 15.33618198308755
NETSAT-2
1 46507U 20068X   26125.48488485  .00024211  00000-0  52809-3 0  9990
2 46507  97.8636 130.0965 0005846 129.2919 230.8847 15.44221430309148
ARKTIKA-M1
1 47719U 21016A   26125.12758485 -.00000163  00000-0  00000-0 0  9995
2 47719  63.2261  63.8552 7272155 269.7325  14.8784  2.00606244 37929
UNISAT-7
1 47945U 21022P   26126.18071191  .00013142  00000-0  33776-3 0  9991
2 47945  97.3920  30.6978 0007980 213.7435 146.3304 15.39380660283390
CSS (TIANHE-1)
1 48274U 21035A   26126.12870869  .00024763  00000-0  26378-3 0  9995
2 48274  41.4665 217.9376 0005250 340.5618  19.5021 15.63386902286598
FENGYUN-4B
1 48808U 21047A   26125.99781237 -.00000321  00000-0  00000+0 0  9990
2 48808   0.0574  66.2030 0005431 309.8788 311.5299  1.00265694 18157
CUTE-LASP
1 49263U 21088D   26126.11961081  .00173227  00000-0  10750-2 0  9994
2 49263  97.4193 221.9287 0000235 347.3653  12.7606 15.76516489255894
JILIN-01 GAOFEN 2F
1 49338U 21097A   26126.08791020  .00004185  00000-0  27905-3 0  9994
2 49338  97.6648 252.4177 0018943  15.1700 345.0091 15.07474018249976
TEIKYOSAT-4 (OORURI)
1 49396U 21102B   26126.02513145  .00002346  00000-0  15047-3 0  9990
2 49396  97.3702 157.1453 0013740  80.3148 279.9633 15.09360056246361
Z-SAT
1 49399U 21102E   26126.14483885  .00005318  00000-0  26413-3 0  9994
2 49399  97.3358 162.7462 0017791  39.5685 320.6844 15.17951826247061
KOSEN-1
1 49402U 21102H   26126.05830124  .00008513  00000-0  33030-3 0  9994
2 49402  97.3217 169.0446 0013544   4.5650 355.5710 15.26266874247597
CAMSAT XW-3 (CAS-9)
1 50466U 21131B   26126.19420956  .00000556  00000-0  18539-3 0  9997
2 50466  98.4957 218.8161 0003397 209.1414 150.9585 14.41317559229067
GOES-18
1 51850U 22021A   26126.02129911  .00000105  00000-0  00000+0 0  9993
2 51850   0.0475  82.1115 0000629  16.3635 356.0898  1.00271329  6174
MERIDIAN-10
1 52145U 22030A   26126.09989436  .00000220  00000-0  00000+0 0  9992
2 52145  62.6789 145.3007 6772651 272.8953  17.7276  2.00616672 30189
BRO-6
1 52422U 22047AE  26126.21760480  .00031691  00000-0  60453-3 0  9996
2 52422  97.3394 216.5533 0004655 207.2382 152.8625 15.48087800224650
STEP CUBELAB-II
1 52897U 22065D   26126.15006693  .00000882  00000-0  18038-3 0  9994
2 52897  98.2170 270.1958 0009180 149.2393 210.9349 14.63235517205351
RANDEV
1 52898U 22065E   26126.16221733  .00000944  00000-0  19087-3 0  9994
2 52898  98.2157 270.5412 0008526 149.0674 211.1031 14.63620678205109
SNUGLITE-II
1 52899U 22065F   26125.66491319  .00001098  00000-0  21745-3 0  9993
2 52899  98.2145 270.5867 0008178 149.4839 210.6841 14.64267740204774
MIMAN
1 52900U 22065G   26125.81551345  .00000613  00000-0  13231-3 0  9992
2 52900  98.2201 268.5263 0008263 150.6962 209.4704 14.61796083204254
